#aV2009 11 27  0  0   .00000000      96 DD+AD WGS84 FIT  NGA
## 1559 432000.00000000   900.00000000 55162  .0000000000000
+   32     1  2  3  4  5  6  7  8  9 10 11 12 13 14 15 16 17
+         18 19 20 21 22 23 24 25 26 27 28 29 30 31 32  0  0
+          0  0  0  0  0  0  0  0  0  0  0  0  0  0  0  0  0
+          0  0  0  0  0  0  0  0  0  0  0  0  0  0  0  0  0
+          0  0  0  0  0  0  0  0  0  0  0  0  0  0  0  0  0
++         0  0  0  0  0  0  0  0  0  0  0  0  0  0  0  0  0
++         0  0  0  0  0  0  0  0  0  0  0  0  0  0  0  0  0
++         0  0  0  0  0  0  0  0  0  0  0  0  0  0  0  0  0
++         0  0  0  0  0  0  0  0  0  0  0  0  0  0  0  0  0
++         0  0  0  0  0  0  0  0  0  0  0  0  0  0  0  0  0
%c cc cc ccc ccc cccc cccc cccc cccc ccccc ccccc ccccc ccccc
%c cc cc ccc ccc cccc cccc cccc cccc ccccc ccccc ccccc ccccc
%f  0.0000000  0.000000000  0.00000000000  0.000000000000000
%f  0.0000000  0.000000000  0.00000000000  0.000000000000000
%i    0    0    0    0      0      0      0      0         0
%i    0    0    0    0      0      0      0      0         0
/*      NGA, ST. LOUIS,MO.                                  
/*   EPHEMERIS COMPUTED FROM  3 DAYS OF DATA                
/* CCCCCCCCCCCCCCCCCCCCCCCCCCCCCCCCCCCCCCCCCCCCCCCCCCCCCCCCC
/* CCCCCCCCCCCCCCCCCCCCCCCCCCCCCCCCCCCCCCCCCCCCCCCCCCCCCCCCC
*  2009 11 27  1 15   .00000000                                                 
P  1  -1638.197026 -15381.242776 -21701.169073    -67.461500                    
V  1  27160.147055   2758.053812  -3921.898795      -.023800                    
P  2  19674.751741  -6964.140925 -16241.106891    196.431667                    
V  2 -10136.732112  18256.644916 -20620.270604       .046134                    
P  3 -16522.368214   2047.325198  20404.848935    479.965482                    
V  3 -12651.861017 -23610.055100  -7398.043811       .051336                    
P  4  15719.506261   4735.429956 -21090.296300   -378.484736                    
V  4 -15468.875148  21444.947475  -6397.251958      -.183917                    
P  5  24920.551850  -3256.152773   8698.932975    -37.737829                    
V  5  10682.727130   3767.588258 -29068.390862       .062049                    
P  6 -17480.148943  -1882.845679  20112.549522    262.756846                    
V  6  -9981.762081 -23194.420656 -10842.798508       .011666                    
P  7  -3260.645201  21552.799434  15054.725557      7.008859                    
V  7 -13061.077935  14178.123056 -23261.882727      -.006726                    
P  8   7180.631091  13421.454242  21660.164572       .204115                    
V  8 -18404.460184  20547.702302  -7130.007781       .004171                    
P  9  15319.094627 -21642.499382    207.927155     90.752722                    
V  9   1284.741763   2195.465107  32184.717774       .021628                    
P 10  26283.548990    343.747824   4753.114381    -29.185109                    
V 10   5759.123404   3482.344474 -30664.541854      -.007656                    
P 11 -10523.595743  24172.311192   -233.845111    -31.248263                    
V 11  -4922.135398  -2153.608219  30300.119703      -.019220                    
P 12  13707.310876 -11711.356138 -19405.894932   -184.529034                    
V 12  24425.910321   4340.106780  14718.668491       .052339                    
P 13   5100.062733  25445.792277  -5735.543340    306.399365                    
V 13  -3982.278232  -6120.299629 -31385.835234       .001043                    
P 14 -14469.640129 -20063.218654  -9703.052795    -19.422787                    
V 14  -2815.880861 -12248.050225  28984.740673       .047818                    
P 15  11913.812100 -10383.809573  21366.300020   -319.464830                    
V 15  11586.207958  24496.208473   5539.683363       .007590                    
P 16 -26517.072567  -2564.839714   1784.280488    -12.923220                    
V 16  -1842.817173  -2587.578625 -31692.194516      -.042279                    
P 17  15433.846651  19214.884218 -10094.545763    106.192953                    
V 17   2615.125149  12817.599894  27987.553667       .035871                    
P 18  -8535.800881 -15890.551091  19859.851355     30.505313                    
V 18  24546.113066   2406.228782  12264.182622       .027617                    
P 19 -11645.273190  11469.354108  20919.263755      -.803814                    
V 19  -9468.685604 -24820.044350   8626.777871      -.019739                    
P 20  -8496.252757  14439.583059 -20727.162989     66.732685                    
V 20 -25929.149445  -3284.784419   8445.139272      -.008367                    
P 21  -1902.741845 -19406.411342  18044.999178    -23.873824                    
V 21  15636.678365 -16554.097946 -17048.743283      -.023890                    
P 22 -19977.349471 -12367.753889  12623.019080    185.376727                    
V 22  16030.208487   -396.061034  25235.464156      -.007267                    
P 23  -3339.054766  20680.985929 -16171.665150    385.410712                    
V 23  -9742.207383 -18235.046352 -21637.995186      -.006153                    
P 24  11980.055525 -22714.064571   7383.813329    239.930945                    
V 24   7976.712657  -5311.772396 -29477.353161       .032357                    
P 25  -6968.770904  23989.356511   9639.812369     33.944063                    
V 25  -7799.612066   8912.690715 -28673.563334       .139185                    
P 26 -10555.893797 -23979.675440  -2792.134159      1.343782                    
V 26   1071.295260  -3484.698773  32488.355613      -.022204                    
P 27  17474.769458 -19308.575767   5735.620453    103.293410                    
V 27  -1712.398796   6542.733377  31048.939386       .033034                    
P 28  17947.432293  13230.100237  15116.417329    -25.148951                    
V 28 -18291.968212  -1205.826353  23170.440996       .002301                    
P 29  -3321.333549 -24872.404881  -8675.584100     77.400887                    
V 29   6524.322392   9387.746829 -29071.116632       .029190                    
P 30    589.050650 -15538.657298 -21919.731397    196.608170                    
V 30  26869.997915   1971.188493   -629.842547       .032190                    
P 31 -16173.584650  -1908.361948 -20796.698053    -60.167786                    
V 31  15509.059221 -21901.079103  -9806.066650       .009010                    
P 32 -17271.959786   8951.563320 -17568.112373    149.903882                    
V 32 -22311.264036  -6535.743059  18516.901223      -.076351                    
EOF
